start=new Date('2021-11-21T00:00:00.000Z').valueOf();
sats=[{"EPHEMERIS_TYPE":"0","ARG_OF_PERICENTER":"64.4556","OBJECT_NAME":"STARLINK-2507","SEMIMAJOR_AXIS":"6925.397","MEAN_MOTION_DOT":"-0.00000410","MEAN_MOTION":"15.06384118","GP_ID":"190142947","DECAY_DATE":null,"CLASSIFICATION_TYPE":"U","PERIOD":"95.593","BSTAR":"-0.00000860270000","TLE_LINE1":"1 48316U 21036AS  21324.30637232 -.00000410  00000-0 -86027-5 0  9997","SITE":"AFETR","MEAN_ELEMENT_THEORY":"SGP4","ELEMENT_SET_NO":"999","CENTER_NAME":"EARTH","APOAPSIS":"548.453","FILE":"3220049","INCLINATION":"53.0557","MEAN_MOTION_DDOT":"0.0000000000000","NORAD_CAT_ID":"48316","ECCENTRICITY":"0.00017200","TIME_SYSTEM":"UTC","RA_OF_ASC_NODE":"301.3536","RCS_SIZE":"LARGE","OBJECT_TYPE":"PAYLOAD","EPOCH":"2021-11-20T07:21:10.568448","TLE_LINE2":"2 48316  53.0557 301.3536 0001720  64.4556 295.6611 15.06384118 31472","LAUNCH_DATE":"2021-04-29","COUNTRY_CODE":"US","PERIAPSIS":"546.071","REF_FRAME":"TEME","MEAN_ANOMALY":"295.6611","REV_AT_EPOCH":"3147","OBJECT_ID":"2021-036AS"},{"OBJECT_TYPE":"PAYLOAD","RCS_SIZE":"LARGE","RA_OF_ASC_NODE":"299.8767","TIME_SYSTEM":"UTC","ECCENTRICITY":"0.00017600","NORAD_CAT_ID":"48317","OBJECT_ID":"2021-036AT","REV_AT_EPOCH":"3217","REF_FRAME":"TEME","MEAN_ANOMALY":"302.8455","COUNTRY_CODE":"US","PERIAPSIS":"546.008","LAUNCH_DATE":"2021-04-29","TLE_LINE2":"2 48317  53.0550 299.8767 0001760  57.2703 302.8455 15.06395691 32174","EPOCH":"2021-11-20T15:13:32.926368","PERIOD":"95.592","CLASSIFICATION_TYPE":"U","DECAY_DATE":null,"GP_ID":"190144954","MEAN_MOTION":"15.06395691","SEMIMAJOR_AXIS":"6925.362","MEAN_MOTION_DOT":"0.00001468","ARG_OF_PERICENTER":"57.2703","OBJECT_NAME":"STARLINK-2513","EPHEMERIS_TYPE":"0","MEAN_MOTION_DDOT":"0.0000000000000","INCLINATION":"53.0550","ELEMENT_SET_NO":"999","CENTER_NAME":"EARTH","APOAPSIS":"548.446","FILE":"3220102","MEAN_ELEMENT_THEORY":"SGP4","TLE_LINE1":"1 48317U 21036AT  21324.63440887  .00001468  00000-0  11742-3 0  9994","SITE":"AFETR","BSTAR":"0.00011742000000"},{"BSTAR":"0.00011377000000","TLE_LINE1":"1 48318U 21036AU  21324.36072592  .00001413  00000-0  11377-3 0  9993","SITE":"AFETR","MEAN_ELEMENT_THEORY":"SGP4","ELEMENT_SET_NO":"999","CENTER_NAME":"EARTH","APOAPSIS":"548.359","FILE":"3220049","INCLINATION":"53.0539","MEAN_MOTION_DDOT":"0.0000000000000","EPHEMERIS_TYPE":"0","ARG_OF_PERICENTER":"56.0587","OBJECT_NAME":"STARLINK-2509","SEMIMAJOR_AXIS":"6925.356","MEAN_MOTION_DOT":"0.00001413","MEAN_MOTION":"15.06397625","GP_ID":"190141446","DECAY_DATE":null,"CLASSIFICATION_TYPE":"U","PERIOD":"95.592","EPOCH":"2021-11-20T08:39:26.719488","TLE_LINE2":"2 48318  53.0539 311.0906 0001643  56.0587 304.0558 15.06397625 31346","LAUNCH_DATE":"2021-04-29","COUNTRY_CODE":"US","PERIAPSIS":"546.083","REF_FRAME":"TEME","MEAN_ANOMALY":"304.0558","REV_AT_EPOCH":"3134","OBJECT_ID":"2021-036AU","NORAD_CAT_ID":"48318","ECCENTRICITY":"0.00016430","TIME_SYSTEM":"UTC","RA_OF_ASC_NODE":"311.0906","RCS_SIZE":"LARGE","OBJECT_TYPE":"PAYLOAD"},{"RA_OF_ASC_NODE":"310.8146","RCS_SIZE":"LARGE","OBJECT_TYPE":"PAYLOAD","NORAD_CAT_ID":"48319","ECCENTRICITY":"0.00017630","TIME_SYSTEM":"UTC","REF_FRAME":"TEME","MEAN_ANOMALY":"304.6670","REV_AT_EPOCH":"3135","OBJECT_ID":"2021-036AV","EPOCH":"2021-11-20T10:09:41.887872","TLE_LINE2":"2 48319  53.0540 310.8146 0001763  55.4485 304.6670 15.06388560 31355","LAUNCH_DATE":"2021-04-29","COUNTRY_CODE":"US","PERIAPSIS":"546.028","GP_ID":"190142697","DECAY_DATE":null,"CLASSIFICATION_TYPE":"U","PERIOD":"95.593","EPHEMERIS_TYPE":"0","ARG_OF_PERICENTER":"55.4485","OBJECT_NAME":"STARLINK-2512","SEMIMAJOR_AXIS":"6925.384","MEAN_MOTION_DOT":"0.00000082","MEAN_MOTION":"15.06388560","ELEMENT_SET_NO":"999","CENTER_NAME":"EARTH","FILE":"3220049","APOAPSIS":"548.470","INCLINATION":"53.0540","MEAN_MOTION_DDOT":"0.0000000000000","BSTAR":"0.00002443200000","TLE_LINE1":"1 48319U 21036AV  21324.42340148  .00000082  00000-0  24432-4 0  9994","SITE":"AFETR","MEAN_ELEMENT_THEORY":"SGP4"},{"MEAN_MOTION_DDOT":"0.0000000000000","INCLINATION":"53.0550","FILE":"3220124","APOAPSIS":"548.398","ELEMENT_SET_NO":"999","CENTER_NAME":"EARTH","MEAN_ELEMENT_THEORY":"SGP4","SITE":"AFETR","TLE_LINE1":"1 48320U 21036AW  21324.68509081  .00001087  00000-0  91842-4 0  9992","BSTAR":"0.00009184200000","PERIOD":"95.592","CLASSIFICATION_TYPE":"U","DECAY_DATE":null,"GP_ID":"190145436","MEAN_MOTION":"15.06397666","MEAN_MOTION_DOT":"0.00001087","SEMIMAJOR_AXIS":"6925.356","OBJECT_NAME":"STARLINK-2029","ARG_OF_PERICENTER":"55.5358","EPHEMERIS_TYPE":"0","OBJECT_ID":"2021-036AW","REV_AT_EPOCH":"3203","MEAN_ANOMALY":"304.5791","REF_FRAME":"TEME","PERIAPSIS":"546.043","COUNTRY_CODE":"US","LAUNCH_DATE":"2021-04-29","TLE_LINE2":"2 48320  53.0550 309.6301 0001700  55.5358 304.5791 15.06397666 32034","EPOCH":"2021-11-20T16:26:31.845984","OBJECT_TYPE":"PAYLOAD","RCS_SIZE":"LARGE","RA_OF_ASC_NODE":"309.6301","TIME_SYSTEM":"UTC","ECCENTRICITY":"0.00017000","NORAD_CAT_ID":"48320"},{"MEAN_ANOMALY":"304.3878","REF_FRAME":"TEME","REV_AT_EPOCH":"3198","OBJECT_ID":"2021-036AX","EPOCH":"2021-11-20T16:21:13.347936","TLE_LINE2":"2 48321  53.0554 309.6493 0001812  55.7282 304.3878 15.06397828 31980","LAUNCH_DATE":"2021-04-29","PERIAPSIS":"545.965","COUNTRY_CODE":"US","RA_OF_ASC_NODE":"309.6493","RCS_SIZE":"LARGE","OBJECT_TYPE":"PAYLOAD","NORAD_CAT_ID":"48321","ECCENTRICITY":"0.00018120","TIME_SYSTEM":"UTC","APOAPSIS":"548.475","FILE":"3220124","ELEMENT_SET_NO":"999","CENTER_NAME":"EARTH","INCLINATION":"53.0554","MEAN_MOTION_DDOT":"0.0000000000000","BSTAR":"0.00010006000000","SITE":"AFETR","TLE_LINE1":"1 48321U 21036AX  21324.68140449  .00001209  00000-0  10006-3 0  9990","MEAN_ELEMENT_THEORY":"SGP4","GP_ID":"190145079","DECAY_DATE":null,"CLASSIFICATION_TYPE":"U","PERIOD":"95.592","EPHEMERIS_TYPE":"0","OBJECT_NAME":"STARLINK-2457","ARG_OF_PERICENTER":"55.7282","MEAN_MOTION_DOT":"0.00001209","SEMIMAJOR_AXIS":"6925.355","MEAN_MOTION":"15.06397828"},{"ECCENTRICITY":"0.00015900","NORAD_CAT_ID":"48322","TIME_SYSTEM":"UTC","RCS_SIZE":"LARGE","RA_OF_ASC_NODE":"311.1523","OBJECT_TYPE":"PAYLOAD","TLE_LINE2":"2 48322  53.0554 311.1523 0001590  61.1584 298.9565 15.06386292 31346","EPOCH":"2021-11-20T08:18:13.840128","COUNTRY_CODE":"US","PERIAPSIS":"546.154","LAUNCH_DATE":"2021-04-29","REF_FRAME":"TEME","MEAN_ANOMALY":"298.9565","OBJECT_ID":"2021-036AY","REV_AT_EPOCH":"3134","ARG_OF_PERICENTER":"61.1584","OBJECT_NAME":"STARLINK-2477","EPHEMERIS_TYPE":"0","MEAN_MOTION":"15.06386292","SEMIMAJOR_AXIS":"6925.391","MEAN_MOTION_DOT":"-0.00000130","DECAY_DATE":null,"GP_ID":"190141946","PERIOD":"95.593","CLASSIFICATION_TYPE":"U","TLE_LINE1":"1 48322U 21036AY  21324.34599352 -.00000130  00000-0  10181-4 0  9993","SITE":"AFETR","BSTAR":"0.00001018100000","MEAN_ELEMENT_THEORY":"SGP4","INCLINATION":"53.0554","ELEMENT_SET_NO":"999","CENTER_NAME":"EARTH","FILE":"3220049","APOAPSIS":"548.357","MEAN_MOTION_DDOT":"0.0000000000000"},{"PERIAPSIS":"546.107","COUNTRY_CODE":"US","LAUNCH_DATE":"2021-04-29","TLE_LINE2":"2 48323  53.0562 310.8835 0001628  67.0707 293.0453 15.06393055 31350","EPOCH":"2021-11-20T09:48:27.963072","OBJECT_ID":"2021-036AZ","REV_AT_EPOCH":"3135","MEAN_ANOMALY":"293.0453","REF_FRAME":"TEME","TIME_SYSTEM":"UTC","ECCENTRICITY":"0.00016280","NORAD_CAT_ID":"48323","OBJECT_TYPE":"PAYLOAD","RCS_SIZE":"LARGE","RA_OF_ASC_NODE":"310.8835","MEAN_ELEMENT_THEORY":"SGP4","SITE":"AFETR","TLE_LINE1":"1 48323U 21036AZ  21324.40865698 -.00000459  00000-0 -11945-4 0  9994","BSTAR":"-0.00001194500000","MEAN_MOTION_DDOT":"0.0000000000000","INCLINATION":"53.0562","APOAPSIS":"548.362","FILE":"3220049","ELEMENT_SET_NO":"999","CENTER_NAME":"EARTH","MEAN_MOTION":"15.06393055","MEAN_MOTION_DOT":"-0.00000459","SEMIMAJOR_AXIS":"6925.370","OBJECT_NAME":"STARLINK-2515","ARG_OF_PERICENTER":"67.0707","EPHEMERIS_TYPE":"0","PERIOD":"95.593","CLASSIFICATION_TYPE":"U","DECAY_DATE":null,"GP_ID":"190142198"},{"PERIOD":"95.593","CLASSIFICATION_TYPE":"U","DECAY_DATE":null,"GP_ID":"190145124","MEAN_MOTION":"15.06390514","SEMIMAJOR_AXIS":"6925.378","MEAN_MOTION_DOT":"0.00000708","ARG_OF_PERICENTER":"60.5586","OBJECT_NAME":"STARLINK-2527","EPHEMERIS_TYPE":"0","MEAN_MOTION_DDOT":"0.0000000000000","INCLINATION":"53.0554","ELEMENT_SET_NO":"999","CENTER_NAME":"EARTH","APOAPSIS":"548.536","FILE":"3220113","MEAN_ELEMENT_THEORY":"SGP4","TLE_LINE1":"1 48324U 21036BA  21324.67036189  .00000708  00000-0  66467-4 0  9993","SITE":"AFETR","BSTAR":"0.00006646700000","OBJECT_TYPE":"PAYLOAD","RCS_SIZE":"LARGE","RA_OF_ASC_NODE":"309.7195","TIME_SYSTEM":"UTC","ECCENTRICITY":"0.00018670","NORAD_CAT_ID":"48324","OBJECT_ID":"2021-036BA","REV_AT_EPOCH":"3198","REF_FRAME":"TEME","MEAN_ANOMALY":"299.5589","COUNTRY_CODE":"US","PERIAPSIS":"545.950","LAUNCH_DATE":"2021-04-29","TLE_LINE2":"2 48324  53.0554 309.7195 0001867  60.5586 299.5589 15.06390514 31983","EPOCH":"2021-11-20T16:05:19.267296"},{"DECAY_DATE":null,"GP_ID":"190141197","PERIOD":"95.593","CLASSIFICATION_TYPE":"U","ARG_OF_PERICENTER":"57.2665","OBJECT_NAME":"STARLINK-2495","EPHEMERIS_TYPE":"0","MEAN_MOTION":"15.06392576","SEMIMAJOR_AXIS":"6925.371","MEAN_MOTION_DOT":"-0.00000430","INCLINATION":"53.0568","CENTER_NAME":"EARTH","ELEMENT_SET_NO":"999","FILE":"3220049","APOAPSIS":"548.376","MEAN_MOTION_DDOT":"0.0000000000000","TLE_LINE1":"1 48325U 21036BB  21324.40128208 -.00000430  00000-0 -99839-5 0  9993","SITE":"AFETR","BSTAR":"-0.00000998390000","MEAN_ELEMENT_THEORY":"SGP4","RCS_SIZE":"LARGE","RA_OF_ASC_NODE":"310.9235","OBJECT_TYPE":"PAYLOAD","ECCENTRICITY":"0.00016460","NORAD_CAT_ID":"48325","TIME_SYSTEM":"UTC","REF_FRAME":"TEME","MEAN_ANOMALY":"302.8483","OBJECT_ID":"2021-036BB","REV_AT_EPOCH":"3135","TLE_LINE2":"2 48325  53.0568 310.9235 0001646  57.2665 302.8483 15.06392576 31356","EPOCH":"2021-11-20T09:37:50.771712","COUNTRY_CODE":"US","PERIAPSIS":"546.096","LAUNCH_DATE":"2021-04-29"}];
